OBJECT_NAME,OBJECT_ID,EPOCH,MEAN_MOTION,ECCENTRICITY,INCLINATION,RA_OF_ASC_NODE,ARG_OF_PERICENTER,MEAN_ANOMALY,EPHEMERIS_TYPE,CLASSIFICATION_TYPE,NORAD_CAT_ID,ELEMENT_SET_NO,REV_AT_EPOCH,BSTAR,MEAN_MOTION_DOT,MEAN_MOTION_DDOT
CONNECTA IOT-1,2024-149E,2026-06-20T04:23:07.267200,15.23559366,.00004441,97.3755,247.4237,226.6229,133.4971,0,U,60472,999,10225,.13647525E-3,.3192E-4,0
LOPEN,2024-149F,2026-06-20T04:26:10.871520,15.39759663,.00010998,97.3773,254.5764,176.9324,183.1929,0,U,60473,999,10272,.3305669E-3,.13008E-3,0
ROCK,2024-149G,2026-06-19T18:45:21.895488,15.39743650,.00013507,97.3773,254.1857,184.7634,175.3600,0,U,60474,999,10266,.31927013E-3,.12553E-3,0
CONNECTA IOT-3,2024-149H,2026-06-20T04:53:52.076544,15.23571504,.00015517,97.3732,247.1968,232.0495,128.0602,0,U,60475,999,10226,.13710063E-3,.3208E-4,0
QUBE,2024-149J,2026-06-20T05:06:52.677216,15.47306824,.00022667,97.3776,257.7050,183.6112,176.5122,0,U,60476,999,10293,.42124674E-3,.21431E-3,0
WREN-1,2024-149L,2026-06-20T04:26:32.202816,15.41652422,.00034472,97.3762,255.3295,234.5594,125.5332,0,U,60478,999,10278,.41786315E-3,.17541E-3,0
TOMORROW-S1,2024-149M,2026-06-20T04:54:52.302528,15.32755992,.00018523,97.3746,251.6677,199.1250,160.9923,0,U,60479,999,10255,.19250791E-3,.6011E-4,0
FLOCK 4BE-18,2024-149N,2026-06-20T04:42:10.285632,15.41937685,.00031399,97.3725,254.9572,221.9124,138.1883,0,U,60480,999,10277,.33006803E-3,.13963E-3,0
FLOCK 4BE-7,2024-149P,2026-06-20T04:57:16.015104,15.40417822,.00023663,97.3754,254.3009,221.4457,138.6610,0,U,60481,999,10271,.41973048E-3,.16911E-3,0
TOMORROW-S2,2024-149T,2026-06-20T00:56:42.249696,15.32784637,.00014833,97.3814,251.9946,240.6913,119.4181,0,U,60485,999,10252,.20312427E-3,.6352E-4,0
FLOCK 4BE-36,2024-149U,2026-06-20T05:32:04.316064,15.42802726,.00025787,97.3741,255.6959,238.1842,121.9155,0,U,60486,999,10282,.31361327E-3,.13651E-3,0
FLOCK 4BE-25,2024-149V,2026-06-20T05:00:59.188032,15.38897204,.00016552,97.3795,254.3799,206.2226,153.8935,0,U,60487,999,10270,.27390999E-3,.10461E-3,0
FLOCK 4BE-31,2024-149W,2026-06-20T04:39:25.277184,15.44188692,.00016931,97.3796,256.5251,225.3200,134.7910,0,U,60488,999,10284,.38340626E-3,.17515E-3,0
FLOCK 4BE-20,2024-149X,2026-06-20T04:10:34.248864,15.38120254,.00027392,97.3693,253.2167,233.4617,126.6376,0,U,60489,999,10267,.31450726E-3,.11725E-3,0
FLOCK 4BE-23,2024-149Y,2026-06-20T00:50:10.344480,15.37732011,.00022629,97.3775,253.4547,241.3079,118.7938,0,U,60490,999,10263,.31296027E-3,.1152E-3,0
FLOCK 4BE-17,2024-149AA,2026-06-20T05:02:29.426784,15.39855558,.00023779,97.3770,254.6033,220.8171,139.2897,0,U,60492,999,10272,.31331443E-3,.12363E-3,0
NUSAT-50 (NANCY ROMAN),2024-149AB,2026-06-19T18:49:58.730592,15.29892594,.0003709,97.3784,252.0226,166.0298,194.1046,0,U,60493,999,10252,.26316997E-3,.7543E-4,0
FLOCK 4BE-22,2024-149AC,2026-06-20T04:32:01.030848,15.41240849,.00026011,97.3728,254.7788,237.8392,122.2602,0,U,60494,999,10276,.32797037E-3,.13554E-3,0
FLOCK 4BE-34,2024-149AD,2026-06-19T18:02:17.617056,15.41217673,.00023788,97.3778,255.1613,251.1718,108.9271,0,U,60495,999,10272,.28589718E-3,.11793E-3,0
TYCHE,2024-149AE,2026-06-20T05:13:15.100032,15.26008919,.00008821,97.3751,248.9940,217.0084,143.1094,0,U,60496,999,10236,.13698099E-3,.345E-4,0
FLOCK 4BE-32,2024-149AF,2026-06-20T01:01:49.498464,15.42240995,.00026742,97.3718,255.0009,242.2970,117.8006,0,U,60497,999,10277,.36491735E-3,.15606E-3,0
NUSAT-48 (HENRIETTA LEAVITT),2024-149AG,2026-06-20T05:32:52.304352,15.29903935,.00024702,97.3912,252.7144,258.0273,102.0691,0,U,60498,999,10260,.2710562E-3,.7773E-4,0
FLOCK 4BE-30,2024-149AH,2026-06-20T05:07:33.684384,15.57190185,.00047736,97.3767,256.8347,229.9198,130.1640,0,U,60499,999,10224,.17364576E-2,.127959E-2,0
NUSAT-49 (KLARA DAN VON NEUMANN),2024-149AJ,2026-06-20T05:01:03.295488,15.29986079,.0000711,97.3778,252.4760,315.0628,45.0555,0,U,60500,999,10259,.24382161E-3,.7002E-4,0
FLOCK 4BE-11,2024-149AK,2026-06-20T05:32:00.777120,15.43058603,.00027846,97.3696,255.4241,242.5833,117.5132,0,U,60501,999,10282,.32994212E-3,.14492E-3,0
YAM-7,2024-149AN,2026-06-20T04:37:39.871776,15.31852973,.00018204,97.3780,251.4304,287.5233,72.5809,0,U,60504,999,10251,.19370474E-3,.5879E-4,0
FLOCK 4BE-24,2024-149AP,2026-06-20T05:12:23.838048,15.43167776,.00029145,97.3712,255.6671,257.1798,102.9124,0,U,60505,999,10283,.38285335E-3,.16897E-3,0
LUR-1,2024-149AQ,2026-06-20T04:28:34.749120,15.30137974,.00026026,97.3736,249.9934,303.9711,56.1282,0,U,60506,999,10243,.19623974E-3,.5647E-4,0
